GLOBALSTAR M067         
1 32263U 07048A   25272.92375181 -.00000066  00000+0  23114-3 0  9995
2 32263  51.9713  89.4607 0001057 156.1896 354.7106 12.40678905822489
GLOBALSTAR M070         
1 32264U 07048B   25272.89507237 -.00000072  00000+0  17521-3 0  9993
2 32264  51.9742 169.5193 0000879  58.7280  20.7502 12.62323201826896
GLOBALSTAR M066         
1 32265U 07048C   25272.98015351 -.00000103  00000+0 -75213-4 0  9994
2 32265  51.9580  84.8861 0004247 209.1095 324.0829 12.30377707828199
GLOBALSTAR M068         
1 32266U 07048D   25272.96831968 -.00000048  00000+0  30945-3 0  9992
2 32266  51.9912 342.8485 0001035  34.0888 137.3143 12.62829274830794
GLOBALSTAR M079         
1 37188U 10054A   25272.94163065 -.00000088  00000+0  90478-4 0  9997
2 37188  52.0031 180.8976 0000709  90.1578 350.4082 12.62267196689686
GLOBALSTAR M074         
1 37189U 10054B   25273.14126259 -.00000078  00000+0  14398-3 0  9990
2 37189  52.0009 179.5968 0000591  67.9273  79.5180 12.62271792690318
GLOBALSTAR M076         
1 37190U 10054C   25273.25084836 -.00000093  00000+0  61340-4 0  9995
2 37190  52.0022 179.4442 0000475  90.9783  74.2511 12.62265683690046
GLOBALSTAR M077         
1 37191U 10054D   25261.11398905 -.00000105  00000+0 -68518-5 0  9993
2 37191  52.0064 173.2575 0000611  67.5371  70.5425 12.62323380688888
